SCD 1                   
1 22490U 93009B   26188.05240078  .00000388  00000+0  55359-4 0  9998
2 22490  24.9696  84.9180 0041784 348.5572 139.3367 14.46126599763996
TECHSAT 1B (GO-32)      
1 25397U 98043D   26187.94313305  .00000041  00000+0  37960-4 0  9995
2 25397  99.0077 181.2008 0001942 128.2186 231.9167 14.24432204454147
SCD 2                   
1 25504U 98060A   26188.46338725  .00000337  00000+0  43214-4 0  9992
2 25504  24.9961 307.1193 0016687 338.2344  85.0178 14.45533192463265
DLR-TUBSAT              
1 25757U 99029B   26188.40935076  .00000067  00000+0  28346-4 0  9993
2 25757  98.6705 184.5795 0013032 290.4952  69.4843 14.52432051436185
TERRA                   
1 25994U 99068A   26188.77860100  .00000307  00000+0  71539-4 0  9993
2 25994  97.9444 237.5073 0003059 137.6111 341.4830 14.61119717412617
MAROC-TUBSAT            
1 27004U 01056D   26188.44070336 -.00000024  00000+0  26016-4 0  9992
2 27004  99.8094   5.6829 0020634  91.1872 300.5175 13.70263230228962
AQUA                    
1 27424U 02022A   26188.85639772  .00000637  00000+0  13641-3 0  9990
2 27424  98.4289 158.5539 0000730  97.9676 317.7927 14.62189857286295
SHIYAN-1 (SY-1)         
1 28220U 04012A   26188.79622453  .00009537  00000+0  28952-3 0  9996
2 28220  97.8682 268.2108 0004142 310.5834  49.5046 15.34320141214254
AURA                    
1 28376U 04026A   26188.73271556  .00000639  00000+0  13900-3 0  9992
2 28376  98.3426 145.3575 0001221  89.7094 270.4247 14.61360464169213
IRS-P5 (CARTOSAT-1)     
1 28649U 05017A   26187.94208735  .00001359  00000+0  14247-3 0  9992
2 28649  97.5304 210.1102 0001829  57.7463 302.3933 14.91102434146764
SINAH 1                 
1 28893U 05043D   26188.76087204  .00000276  00000+0  61734-4 0  9990
2 28893  98.2885 323.2068 0013873 207.2117 152.8360 14.64172204103536
RESURS-DK 1             
1 29228U 06021A   26188.26242769  .00001509  00000+0  90655-4 0  9998
2 29228  69.9330 287.5844 0006734 279.9257  80.1149 15.13300743105617
ARIRANG-2 (KOMPSAT-2)   
1 29268U 06031A   26188.87093777  .00000520  00000+0  10617-3 0  9994
2 29268  97.8317  12.3173 0014908  13.7117 126.2456 14.64674026 64504
LAPAN-TUBSAT            
1 29709U 07001A   26188.85965336 -.00000226  00000+0 -19202-4 0  9994
2 29709  98.1353 188.5504 0013405 115.2163 245.0443 14.85969966 54229
HAIYANG-1B              
1 31113U 07010A   26188.42163326  .00000079  00000+0  45706-4 0  9990
2 31113  98.3507 169.4831 0014330 137.3096 222.9203 14.31031939  3530
COSMO-SKYMED 1          
1 31598U 07023A   26188.85382309  .00001424  00000+0  12832-3 0  9990
2 31598  97.8849  20.8846 0000980  90.6607 269.4727 14.97198359 32880
TERRASAR-X              
1 31698U 07026A   26188.47915537  .00000240  00000+0  14624-4 0  9994
2 31698  97.4461 195.8972 0001878  86.9540 273.1909 15.19153986 56300
WORLDVIEW-1 (WV-1)      
1 32060U 07041A   26188.77256414  .00004146  00000+0  17154-3 0  9999
2 32060  97.3892 308.2257 0000968 255.8740 104.2390 15.24502747 46019
YAOGAN-3                
1 32289U 07055A   26188.86698139  .00000806  00000+0  87510-4 0  9994
2 32289  97.8148 218.5403 0001644  76.2552 283.8849 14.90862026  8950
COSMO-SKYMED 2          
1 32376U 07059A   26188.81924178  .00000331  00000+0  48076-4 0  9992
2 32376  97.8891  12.1184 0001338  92.7296 267.4070 14.82162669  5064
RADARSAT-2              
1 32382U 07061A   26188.88913321 -.00000226  00000+0 -70744-4 0  9999
2 32382  98.5784 195.5256 0001318  84.3014 275.8319 14.29981271968919
CARTOSAT-2A             
1 32783U 08021A   26188.81290412  .00000138  00000+0  25272-4 0  9999
2 32783  97.7619 236.8166 0012954  49.2399 310.9935 14.79268944981858
HUANJING 1A (HJ-1A)     
1 33320U 08041A   26188.86624814  .00001312  00000+0  16307-3 0  9994
2 33320  97.6697 173.9061 0020672  71.9081 288.4383 14.84039645961474
HUANJING 1B (HJ-1B)     
1 33321U 08041B   26188.84480035  .00000378  00000+0  51843-4 0  9994
2 33321  97.6532 176.9943 0037693 114.3797 246.1359 14.83354287961477
GEOEYE 1                
1 33331U 08042A   26188.78308888  .00000349  00000+0  74583-4 0  9998
2 33331  98.1330 262.4656 0004502  10.8439 349.2860 14.64645312953168
THEOS                   
1 33396U 08049A   26188.89421487 -.00000328  00000+0 -13391-3 0  9997
2 33396  98.5556 245.5046 0001137  84.6876 275.4431 14.20135146920904
COSMO-SKYMED 3          
1 33412U 08054A   26188.85931718  .00002156  00000+0  14771-3 0  9993
2 33412  97.8267  47.7717 0015104 189.8459 170.2474 15.07088308960057
YAOGAN-4                
1 33446U 08061A   26188.81045852  .00000872  00000+0  11316-3 0  9994
2 33446  97.9306 122.1690 0014486   9.7666 350.3826 14.83242097948721
GOSAT (IBUKI)           
1 33492U 09002A   26188.79755404 -.00000014  00000+0  60688-5 0  9996
2 33492  98.0911 299.6223 0001152  82.0185 278.1151 14.67537692934480
DEIMOS-1                
1 35681U 09041A   26188.87346094  .00000822  00000+0  12848-3 0  9990
2 35681  97.7431 345.2069 0002607 102.7196 257.4305 14.75261043909935
